{
    "links": {
        "self": "http://www.neowsapp.com/rest/v1/neo/3837791?api_key=iIulBulltgU6a56xZRHN4H3l9WmuAYTsLGpBGhQ2"
    },
    "id": "3837791",
    "neo_reference_id": "3837791",
    "name": "(2019 AZ8)",
    "designation": "2019 AZ8",
    "nasa_jpl_url": "http://ssd.jpl.nasa.gov/sbdb.cgi?sstr=3837791",
    "absolute_magnitude_h": 25.8,
    "estimated_diameter": {
        "kilometers": {
            "estimated_diameter_min": 0.0183888672,
            "estimated_diameter_max": 0.0411187571
        },
        "meters": {
            "estimated_diameter_min": 18.388867207,
            "estimated_diameter_max": 41.1187571041
        },
        "miles": {
            "estimated_diameter_min": 0.0114263088,
            "estimated_diameter_max": 0.0255500032
        },
        "feet": {
            "estimated_diameter_min": 60.3309310875,
            "estimated_diameter_max": 134.9040630575
        }
    },
    "is_potentially_hazardous_asteroid": false,
    "close_approach_data": [
        {
            "close_approach_date": "2019-01-20",
            "close_approach_date_full": "2019-Jan-20 01:18",
            "epoch_date_close_approach": 1547947080000,
            "relative_velocity": {
                "kilometers_per_second": "9.9801680104",
                "kilometers_per_hour": "35928.604837593",
                "miles_per_hour": "22324.6378225589"
            },
            "miss_distance": {
                "astronomical": "0.0351690903",
                "lunar": "13.6807761267",
                "kilometers": "5261220.998717661",
                "miles": "3269171.1351232818"
            },
            "orbiting_body": "Earth"
        }
    ],
    "orbital_data": {
        "orbit_id": "3",
        "orbit_determination_date": "2019-01-16 06:49:32",
        "first_observation_date": "2019-01-09",
        "last_observation_date": "2019-01-15",
        "data_arc_in_days": 6,
        "observations_used": 23,
        "orbit_uncertainty": "8",
        "minimum_orbit_intersection": ".00959741",
        "jupiter_tisserand_invariant": "3.671",
        "epoch_osculation": "2458498.5",
        "eccentricity": ".5224768977877607",
        "semi_major_axis": "1.984103774513308",
        "inclination": "5.247606133378636",
        "ascending_node_longitude": "311.9547381151306",
        "orbital_period": "1020.81020217698",
        "perihelion_distance": ".9474553895166081",
        "perihelion_argument": "200.0315392141513",
        "aphelion_distance": "3.020752159510008",
        "perihelion_time": "2458527.866517530140",
        "mean_anomaly": "349.6435730282626",
        "mean_motion": ".3526610522036946",
        "equinox": "J2000",
        "orbit_class": {
            "orbit_class_type": "APO",
            "orbit_class_description": "Near-Earth asteroid orbits which cross the Earth’s orbit similar to that of 1862 Apollo",
            "orbit_class_range": "a (semi-major axis) > 1.0 AU; q (perihelion) < 1.017 AU"
        }
    },
    "is_sentry_object": false
}